IRIDIUM 136             
1 42962U 17061H   24033.91461227  .00000313  00000+0  10460-3 0  9992
2 42962  86.3966  26.8355 0002261  80.7949 279.3502 14.34220162330818
